{
  "type": "FeatureCollection",
  "features": [
    {
      "type": "Feature",
      "properties": {
        "norad_id": 37836,
        "name": "EUTELSAT 16A",
        "group": "eutelsat",
        "lat": -0.042148804088838164,
        "lon": -148.7818249566988,
        "alt_km": 35770.44871169066,
        "timestamp": "2025-12-10T07:43:54.445267+00:00",
        "meta_object_name": "EUTELSAT 16A",
        "meta_object_id": "2011-057A",
        "meta_epoch": "2025-12-09T13:38:59.739072",
        "meta_mean_motion": 1.0027106,
        "meta_eccentricity": 0.0005952,
        "meta_inclination": 0.0582,
        "meta_ra_of_asc_node": 2.0567,
        "meta_arg_of_pericenter": 260.4789,
        "meta_mean_anomaly": 36.77,
        "meta_ephemeris_type": 0,
        "meta_classification_type": "U",
        "meta_norad_cat_id": 37836,
        "meta_element_set_no": 999,
        "meta_rev_at_epoch": 542,
        "meta_bstar": 0,
        "meta_mean_motion_dot": 1.06e-06,
        "meta_mean_motion_ddot": 0,
        "tle_line1": "1 37836U 11057A   25343.56874698  .00000106  00000+0  00000+0 0  9996",
        "tle_line2": "2 37836   0.0582   2.0567 0005952 260.4789  36.7700  1.00271060  5422"
      },
      "geometry": {
        "type": "Point",
        "coordinates": [
          -148.7818249566988,
          -0.042148804088838164
        ]
      }
    },
    {
      "type": "Feature",
      "properties": {
        "norad_id": 38992,
        "name": "EUTELSAT 21B",
        "group": "eutelsat",
        "lat": -0.05591965585917705,
        "lon": -143.16102355162656,
        "alt_km": 35777.40949284963,
        "timestamp": "2025-12-10T07:43:54.445280+00:00",
        "meta_object_name": "EUTELSAT 21B",
        "meta_object_id": "2012-062B",
        "meta_epoch": "2025-12-09T13:40:29.595072",
        "meta_mean_motion": 1.0027108,
        "meta_eccentricity": 0.0003268,
        "meta_inclination": 0.0662,
        "meta_ra_of_asc_node": 358.923,
        "meta_arg_of_pericenter": 268.5453,
        "meta_mean_anomaly": 37.8092,
        "meta_ephemeris_type": 0,
        "meta_classification_type": "U",
        "meta_norad_cat_id": 38992,
        "meta_element_set_no": 999,
        "meta_rev_at_epoch": 4792,
        "meta_bstar": 0,
        "meta_mean_motion_dot": 1.32e-06,
        "meta_mean_motion_ddot": 0,
        "tle_line1": "1 38992U 12062B   25343.56978698  .00000132  00000+0  00000+0 0  9991",
        "tle_line2": "2 38992   0.0662 358.9230 0003268 268.5453  37.8092  1.00271080 47929"
      },
      "geometry": {
        "type": "Point",
        "coordinates": [
          -143.16102355162656,
          -0.05591965585917705
        ]
      }
    },
    {
      "type": "Feature",
      "properties": {
        "norad_id": 39020,
        "name": "EUTELSAT 70B",
        "group": "eutelsat",
        "lat": -0.07990588203621368,
        "lon": -94.1891853316377,
        "alt_km": 35768.986101703755,
        "timestamp": "2025-12-10T07:43:54.445292+00:00",
        "meta_object_name": "EUTELSAT 70B",
        "meta_object_id": "2012-069A",
        "meta_epoch": "2025-12-09T17:58:38.861760",
        "meta_mean_motion": 1.00271592,
        "meta_eccentricity": 0.0004372,
        "meta_inclination": 0.0642,
        "meta_ra_of_asc_node": 339.1745,
        "meta_arg_of_pericenter": 264.4602,
        "meta_mean_anomaly": 175.281,
        "meta_ephemeris_type": 0,
        "meta_classification_type": "U",
        "meta_norad_cat_id": 39020,
        "meta_element_set_no": 999,
        "meta_rev_at_epoch": 4761,
        "meta_bstar": 0,
        "meta_mean_motion_dot": -4.1e-07,
        "meta_mean_motion_ddot": 0,
        "tle_line1": "1 39020U 12069A   25343.74906090 -.00000041  00000+0  00000+0 0  9998",
        "tle_line2": "2 39020   0.0642 339.1745 0004372 264.4602 175.2810  1.00271592 47619"
      },
      "geometry": {
        "type": "Point",
        "coordinates": [
          -94.1891853316377,
          -0.07990588203621368
        ]
      }
    },
    {
      "type": "Feature",
      "properties": {
        "norad_id": 39122,
        "name": "EUTELSAT 117 WEST A",
        "group": "eutelsat",
        "lat": 0.0318472303843807,
        "lon": 78.46995691329677,
        "alt_km": 35799.293073621724,
        "timestamp": "2025-12-10T07:43:54.445321+00:00",
        "meta_object_name": "EUTELSAT 117 WEST A",
        "meta_object_id": "2013-012A",
        "meta_epoch": "2025-12-09T14:43:46.035264",
        "meta_mean_motion": 1.00270774,
        "meta_eccentricity": 0.0003063,
        "meta_inclination": 0.0128,
        "meta_ra_of_asc_node": 351.3101,
        "meta_arg_of_pericenter": 269.3447,
        "meta_mean_anomaly": 282.086,
        "meta_ephemeris_type": 0,
        "meta_classification_type": "U",
        "meta_norad_cat_id": 39122,
        "meta_element_set_no": 999,
        "meta_rev_at_epoch": 4653,
        "meta_bstar": 0,
        "meta_mean_motion_dot": -1e-07,
        "meta_mean_motion_ddot": 0,
        "tle_line1": "1 39122U 13012A   25343.61372726 -.00000010  00000+0  00000+0 0  9995",
        "tle_line2": "2 39122   0.0128 351.3101 0003063 269.3447 282.0860  1.00270774 46533"
      },
      "geometry": {
        "type": "Point",
        "coordinates": [
          78.46995691329677,
          0.0318472303843807
        ]
      }
    },
    {
      "type": "Feature",
      "properties": {
        "norad_id": 39163,
        "name": "EUTELSAT 7B",
        "group": "eutelsat",
        "lat": -0.020070472882852113,
        "lon": -157.7870455429761,
        "alt_km": 35793.32079599182,
        "timestamp": "2025-12-10T07:43:54.445335+00:00",
        "meta_object_name": "EUTELSAT 7B",
        "meta_object_id": "2013-022A",
        "meta_epoch": "2025-12-09T13:36:22.491072",
        "meta_mean_motion": 1.00271707,
        "meta_eccentricity": 0.0004563,
        "meta_inclination": 0.0707,
        "meta_ra_of_asc_node": 14.9491,
        "meta_arg_of_pericenter": 299.7285,
        "meta_mean_anomaly": 334.959,
        "meta_ephemeris_type": 0,
        "meta_classification_type": "U",
        "meta_norad_cat_id": 39163,
        "meta_element_set_no": 999,
        "meta_rev_at_epoch": 4605,
        "meta_bstar": 0,
        "meta_mean_motion_dot": 5e-07,
        "meta_mean_motion_ddot": 0,
        "tle_line1": "1 39163U 13022A   25343.56692698  .00000050  00000+0  00000+0 0  9991",
        "tle_line2": "2 39163   0.0707  14.9491 0004563 299.7285 334.9590  1.00271707 46059"
      },
      "geometry": {
        "type": "Point",
        "coordinates": [
          -157.7870455429761,
          -0.020070472882852113
        ]
      }
    },
    {
      "type": "Feature",
      "properties": {
        "norad_id": 39612,
        "name": "EXPRESS-AT1",
        "group": "eutelsat",
        "lat": -0.020233359620204117,
        "lon": -108.73001224082844,
        "alt_km": 35784.78434922525,
        "timestamp": "2025-12-10T07:43:54.445347+00:00",
        "meta_object_name": "EXPRESS-AT1",
        "meta_object_id": "2014-010A",
        "meta_epoch": "2025-12-09T20:41:15.013248",
        "meta_mean_motion": 1.00270539,
        "meta_eccentricity": 5.59e-05,
        "meta_inclination": 0.0122,
        "meta_ra_of_asc_node": 288.6927,
        "meta_arg_of_pericenter": 275.4827,
        "meta_mean_anomaly": 240.9771,
        "meta_ephemeris_type": 0,
        "meta_classification_type": "U",
        "meta_norad_cat_id": 39612,
        "meta_element_set_no": 999,
        "meta_rev_at_epoch": 4292,
        "meta_bstar": 0,
        "meta_mean_motion_dot": 8.2e-07,
        "meta_mean_motion_ddot": 0,
        "tle_line1": "1 39612U 14010A   25343.86197932  .00000082  00000+0  00000+0 0  9997",
        "tle_line2": "2 39612   0.0122 288.6927 0000559 275.4827 240.9771  1.00270539 42928"
      },
      "geometry": {
        "type": "Point",
        "coordinates": [
          -108.73001224082844,
          -0.020233359620204117
        ]
      }
    },
    {
      "type": "Feature",
      "properties": {
        "norad_id": 39613,
        "name": "EXPRESS-AT2",
        "group": "eutelsat",
        "lat": 0.006442984894006972,
        "lon": -24.845599775985104,
        "alt_km": 35781.6448220258,
        "timestamp": "2025-12-10T07:43:54.445359+00:00",
        "meta_object_name": "EXPRESS-AT2",
        "meta_object_id": "2014-010B",
        "meta_epoch": "2025-12-09T19:22:30.059904",
        "meta_mean_motion": 1.00272305,
        "meta_eccentricity": 0.0001561,
        "meta_inclination": 0.0192,
        "meta_ra_of_asc_node": 316.2201,
        "meta_arg_of_pericenter": 330.3487,
        "meta_mean_anomaly": 222.7154,
        "meta_ephemeris_type": 0,
        "meta_classification_type": "U",
        "meta_norad_cat_id": 39613,
        "meta_element_set_no": 999,
        "meta_rev_at_epoch": 4260,
        "meta_bstar": 0,
        "meta_mean_motion_dot": -2.78e-06,
        "meta_mean_motion_ddot": 0,
        "tle_line1": "1 39613U 14010B   25343.80729236 -.00000278  00000+0  00000+0 0  9998",
        "tle_line2": "2 39613   0.0192 316.2201 0001561 330.3487 222.7154  1.00272305 42607"
      },
      "geometry": {
        "type": "Point",
        "coordinates": [
          -24.845599775985104,
          0.006442984894006972
        ]
      }
    }
  ]
}